start=new Date('2022-06-12T00:00:00.000Z').valueOf();
sats=[{"REV_AT_EPOCH":"7745","SEMIMAJOR_AXIS":"6925.404","BSTAR":"-0.00004263200000","FILE":"3492149","PERIAPSIS":"545.812","OBJECT_NAME":"STARLINK-2123","SITE":"AFETR","LAUNCH_DATE":"2021-01-20","CLASSIFICATION_TYPE":"U","MEAN_MOTION":"15.06381894","EPHEMERIS_TYPE":"0","MEAN_ELEMENT_THEORY":"SGP4","MEAN_MOTION_DDOT":"0.0000000000000","APOAPSIS":"548.726","DECAY_DATE":null,"ELEMENT_SET_NO":"999","TIME_SYSTEM":"UTC","REF_FRAME":"TEME","TLE_LINE1":"1 47401U 21005BE  22162.85315922 -.00000916  00000-0 -42632-4 0  9991","MEAN_ANOMALY":"303.9660","NORAD_CAT_ID":"47401","ECCENTRICITY":"0.00021040","TLE_LINE2":"2 47401  53.0557  47.5990 0002104  56.1529 303.9660 15.06381894 77457","PERIOD":"95.593","EPOCH":"2022-06-11T20:28:32.956608","ARG_OF_PERICENTER":"56.1529","OBJECT_ID":"2021-005BE","GP_ID":"205925921","RA_OF_ASC_NODE":"47.5990","RCS_SIZE":"LARGE","INCLINATION":"53.0557","MEAN_MOTION_DOT":"-0.00000916","COUNTRY_CODE":"US","CENTER_NAME":"EARTH","OBJECT_TYPE":"PAYLOAD"},{"BSTAR":"0.00020838000000","REV_AT_EPOCH":"7746","SEMIMAJOR_AXIS":"6925.350","TIME_SYSTEM":"UTC","ELEMENT_SET_NO":"999","REF_FRAME":"TEME","FILE":"3492149","PERIAPSIS":"545.903","CLASSIFICATION_TYPE":"U","SITE":"AFETR","LAUNCH_DATE":"2021-01-20","OBJECT_NAME":"STARLINK-2124","MEAN_MOTION_DDOT":"0.0000000000000","APOAPSIS":"548.528","DECAY_DATE":null,"MEAN_MOTION":"15.06399414","MEAN_ELEMENT_THEORY":"SGP4","EPHEMERIS_TYPE":"0","NORAD_CAT_ID":"47402","MEAN_ANOMALY":"309.2439","ECCENTRICITY":"0.00018950","TLE_LINE2":"2 47402  53.0560  47.2039 0001895  50.8718 309.2439 15.06399414 77461","EPOCH":"2022-06-11T22:30:36.691488","PERIOD":"95.592","OBJECT_ID":"2021-005BF","ARG_OF_PERICENTER":"50.8718","TLE_LINE1":"1 47402U 21005BF  22162.93792467  .00002823  00000-0  20838-3 0  9994","COUNTRY_CODE":"US","MEAN_MOTION_DOT":"0.00002823","INCLINATION":"53.0560","OBJECT_TYPE":"PAYLOAD","CENTER_NAME":"EARTH","GP_ID":"205926171","RA_OF_ASC_NODE":"47.2039","RCS_SIZE":"LARGE"},{"TLE_LINE1":"1 47403U 21005BG  22162.94529273  .00000839  00000-0  75209-4 0  9997","NORAD_CAT_ID":"47403","MEAN_ANOMALY":"290.1215","ECCENTRICITY":"0.00017290","TLE_LINE2":"2 47403  53.0557  47.1810 0001729  69.9960 290.1215 15.06398744 77465","PERIOD":"95.592","EPOCH":"2022-06-11T22:41:13.291872","OBJECT_ID":"2021-005BG","ARG_OF_PERICENTER":"69.9960","GP_ID":"205927421","RA_OF_ASC_NODE":"47.1810","RCS_SIZE":"LARGE","COUNTRY_CODE":"US","MEAN_MOTION_DOT":"0.00000839","INCLINATION":"53.0557","OBJECT_TYPE":"PAYLOAD","CENTER_NAME":"EARTH","REV_AT_EPOCH":"7746","SEMIMAJOR_AXIS":"6925.352","BSTAR":"0.00007520900000","FILE":"3492149","PERIAPSIS":"546.020","SITE":"AFETR","LAUNCH_DATE":"2021-01-20","OBJECT_NAME":"STARLINK-2127","CLASSIFICATION_TYPE":"U","MEAN_MOTION_DDOT":"0.0000000000000","DECAY_DATE":null,"APOAPSIS":"548.415","MEAN_MOTION":"15.06398744","EPHEMERIS_TYPE":"0","MEAN_ELEMENT_THEORY":"SGP4","TIME_SYSTEM":"UTC","ELEMENT_SET_NO":"999","REF_FRAME":"TEME"},{"PERIOD":"95.592","EPOCH":"2022-06-11T22:35:55.288032","ARG_OF_PERICENTER":"58.0502","OBJECT_ID":"2021-005BH","NORAD_CAT_ID":"47404","MEAN_ANOMALY":"302.0666","ECCENTRICITY":"0.00018410","TLE_LINE2":"2 47404  53.0559  47.1960 0001841  58.0502 302.0666 15.06398906 77463","TLE_LINE1":"1 47404U 21005BH  22162.94161213  .00001836  00000-0  14211-3 0  9997","CENTER_NAME":"EARTH","OBJECT_TYPE":"PAYLOAD","COUNTRY_CODE":"US","INCLINATION":"53.0559","MEAN_MOTION_DOT":"0.00001836","RCS_SIZE":"LARGE","GP_ID":"205927670","RA_OF_ASC_NODE":"47.1960","BSTAR":"0.00014211000000","SEMIMAJOR_AXIS":"6925.352","REV_AT_EPOCH":"7746","REF_FRAME":"TEME","ELEMENT_SET_NO":"999","TIME_SYSTEM":"UTC","MEAN_MOTION_DDOT":"0.0000000000000","DECAY_DATE":null,"APOAPSIS":"548.492","MEAN_MOTION":"15.06398906","EPHEMERIS_TYPE":"0","MEAN_ELEMENT_THEORY":"SGP4","FILE":"3492149","PERIAPSIS":"545.942","OBJECT_NAME":"STARLINK-2128","SITE":"AFETR","LAUNCH_DATE":"2021-01-20","CLASSIFICATION_TYPE":"U"},{"PERIOD":"95.593","EPOCH":"2022-06-11T11:01:55.344576","OBJECT_ID":"2021-005BJ","ARG_OF_PERICENTER":"60.8756","NORAD_CAT_ID":"47405","MEAN_ANOMALY":"299.2450","ECCENTRICITY":"0.00021720","TLE_LINE2":"2 47405  53.0563  79.3463 0002172  60.8756 299.2450 15.06393913 76969","TLE_LINE1":"1 47405U 21005BJ  22162.45966834  .00000738  00000-0  68432-4 0  9991","OBJECT_TYPE":"PAYLOAD","CENTER_NAME":"EARTH","COUNTRY_CODE":"US","MEAN_MOTION_DOT":"0.00000738","INCLINATION":"53.0563","RCS_SIZE":"LARGE","GP_ID":"205926421","RA_OF_ASC_NODE":"79.3463","BSTAR":"0.00006843200000","SEMIMAJOR_AXIS":"6925.367","REV_AT_EPOCH":"7696","REF_FRAME":"TEME","TIME_SYSTEM":"UTC","ELEMENT_SET_NO":"999","MEAN_MOTION_DDOT":"0.0000000000000","APOAPSIS":"548.736","DECAY_DATE":null,"MEAN_MOTION":"15.06393913","MEAN_ELEMENT_THEORY":"SGP4","EPHEMERIS_TYPE":"0","FILE":"3492149","PERIAPSIS":"545.728","OBJECT_NAME":"STARLINK-2130","SITE":"AFETR","LAUNCH_DATE":"2021-01-20","CLASSIFICATION_TYPE":"U"},{"SEMIMAJOR_AXIS":"6925.359","REV_AT_EPOCH":"7746","BSTAR":"0.00009756500000","MEAN_MOTION_DDOT":"0.0000000000000","DECAY_DATE":null,"APOAPSIS":"548.200","MEAN_MOTION":"15.06396620","MEAN_ELEMENT_THEORY":"SGP4","EPHEMERIS_TYPE":"0","FILE":"3492149","PERIAPSIS":"546.248","OBJECT_NAME":"STARLINK-2133","SITE":"AFETR","LAUNCH_DATE":"2021-01-20","CLASSIFICATION_TYPE":"U","REF_FRAME":"TEME","ELEMENT_SET_NO":"999","TIME_SYSTEM":"UTC","TLE_LINE1":"1 47406U 21005BK  22162.95266808  .00001172  00000-0  97565-4 0  9993","EPOCH":"2022-06-11T22:51:50.522112","PERIOD":"95.592","OBJECT_ID":"2021-005BK","ARG_OF_PERICENTER":"79.9702","MEAN_ANOMALY":"280.1446","NORAD_CAT_ID":"47406","ECCENTRICITY":"0.00014090","TLE_LINE2":"2 47406  53.0565  47.1518 0001409  79.9702 280.1446 15.06396620 77468","RCS_SIZE":"LARGE","GP_ID":"205926670","RA_OF_ASC_NODE":"47.1518","OBJECT_TYPE":"PAYLOAD","CENTER_NAME":"EARTH","COUNTRY_CODE":"US","INCLINATION":"53.0565","MEAN_MOTION_DOT":"0.00001172"},{"GP_ID":"205926922","RA_OF_ASC_NODE":"47.1141","RCS_SIZE":"LARGE","COUNTRY_CODE":"US","INCLINATION":"53.0551","MEAN_MOTION_DOT":"0.00003357","CENTER_NAME":"EARTH","OBJECT_TYPE":"PAYLOAD","TLE_LINE1":"1 47407U 21005BL  22162.96003736  .00003357  00000-0  24411-3 0  9990","MEAN_ANOMALY":"293.8735","NORAD_CAT_ID":"47407","TLE_LINE2":"2 47407  53.0551  47.1141 0001872  66.2450 293.8735 15.06406094 77468","ECCENTRICITY":"0.00018720","EPOCH":"2022-06-11T23:02:27.227904","PERIOD":"95.592","OBJECT_ID":"2021-005BL","ARG_OF_PERICENTER":"66.2450","FILE":"3492149","PERIAPSIS":"545.898","SITE":"AFETR","LAUNCH_DATE":"2021-01-20","OBJECT_NAME":"STARLINK-2134","CLASSIFICATION_TYPE":"U","MEAN_MOTION_DDOT":"0.0000000000000","APOAPSIS":"548.491","DECAY_DATE":null,"MEAN_MOTION":"15.06406094","EPHEMERIS_TYPE":"0","MEAN_ELEMENT_THEORY":"SGP4","TIME_SYSTEM":"UTC","ELEMENT_SET_NO":"999","REF_FRAME":"TEME","REV_AT_EPOCH":"7746","SEMIMAJOR_AXIS":"6925.330","BSTAR":"0.00024411000000"},{"SEMIMAJOR_AXIS":"6925.367","REV_AT_EPOCH":"7746","BSTAR":"0.00010975000000","MEAN_MOTION":"15.06394036","MEAN_ELEMENT_THEORY":"SGP4","EPHEMERIS_TYPE":"0","MEAN_MOTION_DDOT":"0.0000000000000","APOAPSIS":"548.354","DECAY_DATE":null,"PERIAPSIS":"546.110","FILE":"3492149","SITE":"AFETR","OBJECT_NAME":"STARLINK-2135","LAUNCH_DATE":"2021-01-20","CLASSIFICATION_TYPE":"U","REF_FRAME":"TEME","TIME_SYSTEM":"UTC","ELEMENT_SET_NO":"999","TLE_LINE1":"1 47408U 21005BM  22162.93055446  .00001353  00000-0  10975-3 0  9997","EPOCH":"2022-06-11T22:19:59.905344","PERIOD":"95.593","OBJECT_ID":"2021-005BM","ARG_OF_PERICENTER":"76.7390","MEAN_ANOMALY":"283.3780","NORAD_CAT_ID":"47408","ECCENTRICITY":"0.00016200","TLE_LINE2":"2 47408  53.0553  47.2515 0001620  76.7390 283.3780 15.06394036 77463","RCS_SIZE":"LARGE","GP_ID":"205927171","RA_OF_ASC_NODE":"47.2515","CENTER_NAME":"EARTH","OBJECT_TYPE":"PAYLOAD","INCLINATION":"53.0553","MEAN_MOTION_DOT":"0.00001353","COUNTRY_CODE":"US"},{"RCS_SIZE":"LARGE","GP_ID":"205927686","RA_OF_ASC_NODE":"27.2220","OBJECT_TYPE":"PAYLOAD","CENTER_NAME":"EARTH","MEAN_MOTION_DOT":"0.00001831","INCLINATION":"53.0561","COUNTRY_CODE":"US","TLE_LINE1":"1 47548U 21009A   22162.93607938  .00001831  00000-0  14177-3 0  9994","PERIOD":"95.592","EPOCH":"2022-06-11T22:27:57.258432","OBJECT_ID":"2021-009A","ARG_OF_PERICENTER":"62.8992","MEAN_ANOMALY":"297.2169","NORAD_CAT_ID":"47548","TLE_LINE2":"2 47548  53.0561  27.2220 0001684  62.8992 297.2169 15.06399668 74932","ECCENTRICITY":"0.00016840","MEAN_MOTION":"15.06399668","EPHEMERIS_TYPE":"0","MEAN_ELEMENT_THEORY":"SGP4","MEAN_MOTION_DDOT":"0.0000000000000","APOAPSIS":"548.381","DECAY_DATE":null,"PERIAPSIS":"546.048","FILE":"3492149","LAUNCH_DATE":"2021-02-04","SITE":"AFETR","OBJECT_NAME":"STARLINK-1782","CLASSIFICATION_TYPE":"U","REF_FRAME":"TEME","ELEMENT_SET_NO":"999","TIME_SYSTEM":"UTC","SEMIMAJOR_AXIS":"6925.350","REV_AT_EPOCH":"7493","BSTAR":"0.00014177000000"},{"REV_AT_EPOCH":"7493","SEMIMAJOR_AXIS":"6925.368","BSTAR":"0.00000663480000","FILE":"3492149","PERIAPSIS":"546.268","LAUNCH_DATE":"2021-02-04","SITE":"AFETR","OBJECT_NAME":"STARLINK-1806","CLASSIFICATION_TYPE":"U","MEAN_MOTION_DDOT":"0.0000000000000","DECAY_DATE":null,"APOAPSIS":"548.199","MEAN_MOTION":"15.06393579","MEAN_ELEMENT_THEORY":"SGP4","EPHEMERIS_TYPE":"0","ELEMENT_SET_NO":"999","TIME_SYSTEM":"UTC","REF_FRAME":"TEME","TLE_LINE1":"1 47549U 21009B   22162.93239408 -.00000183  00000-0  66348-5 0  9997","NORAD_CAT_ID":"47549","MEAN_ANOMALY":"292.8493","ECCENTRICITY":"0.00013940","TLE_LINE2":"2 47549  53.0545  27.2343 0001394  67.2643 292.8493 15.06393579 74937","PERIOD":"95.593","EPOCH":"2022-06-11T22:22:38.848512","OBJECT_ID":"2021-009B","ARG_OF_PERICENTER":"67.2643","GP_ID":"205926437","RA_OF_ASC_NODE":"27.2343","RCS_SIZE":"LARGE","COUNTRY_CODE":"US","INCLINATION":"53.0545","MEAN_MOTION_DOT":"-0.00000183","CENTER_NAME":"EARTH","OBJECT_TYPE":"PAYLOAD"}];
